{
  "norad_id": 65028,
  "name": "STARLINK-34807",
  "history": [
    {
      "epoch": "2026-03-28T18:10:40.915200Z",
      "apogee_km": 475.87543340319735,
      "perigee_km": 474.49229618626396,
      "latitude_deg": -3.5007393160966354e-05,
      "longitude_deg": 106.47111279849159,
      "height_km": 475.8478950580676,
      "semi_major_axis_km": 6853.32086479473,
      "eccentricity": 0.00010091,
      "inclination_deg": 53.1579,
      "raan_deg": 205.3149,
      "arg_perigee_deg": 70.1996,
      "mean_anomaly_deg": 289.9113,
      "mean_motion_rev_day": 15.30210451
    },
    {
      "epoch": "2026-03-29T00:26:54.184416Z",
      "apogee_km": 476.59998312186144,
      "perigee_km": 473.8038208498501,
      "latitude_deg": -4.9443860590900896e-06,
      "longitude_deg": 10.945332484244917,
      "height_km": 476.0175598615987,
      "semi_major_axis_km": 6853.338901985855,
      "eccentricity": 0.000204,
      "inclination_deg": 53.1592,
      "raan_deg": 204.1019,
      "arg_perigee_deg": 86.6686,
      "mean_anomaly_deg": 273.4548,
      "mean_motion_rev_day": 15.3020441
    },
    {
      "epoch": "2026-03-29T23:57:41.745312Z",
      "apogee_km": 476.00519329393865,
      "perigee_km": 474.40370446416455,
      "latitude_deg": 3.468162515070564e-05,
      "longitude_deg": 12.731138830361628,
      "height_km": 476.1094101946026,
      "semi_major_axis_km": 6853.341448879051,
      "eccentricity": 0.00011684,
      "inclination_deg": 53.1571,
      "raan_deg": 199.5515,
      "arg_perigee_deg": 90.5054,
      "mean_anomaly_deg": 269.6081,
      "mean_motion_rev_day": 15.30203557
    },
    {
      "epoch": "2026-03-30T12:30:07.362720Z",
      "apogee_km": 475.77734713989685,
      "perigee_km": 474.5676009515382,
      "latitude_deg": 2.2164395540807945e-05,
      "longitude_deg": -178.31792704621887,
      "height_km": 476.1019050327171,
      "semi_major_axis_km": 6853.309474045717,
      "eccentricity": 8.826e-05,
      "inclination_deg": 53.1588,
      "raan_deg": 197.1242,
      "arg_perigee_deg": 92.934,
      "mean_anomaly_deg": 267.1762,
      "mean_motion_rev_day": 15.30214266
    },
    {
      "epoch": "2026-03-30T17:12:17.256960Z",
      "apogee_km": 475.9937369198833,
      "perigee_km": 474.443370826486,
      "latitude_deg": 4.265396752144454e-06,
      "longitude_deg": 110.03849883012064,
      "height_km": 475.8602159194832,
      "semi_major_axis_km": 6853.355553873184,
      "eccentricity": 0.00011311,
      "inclination_deg": 53.1588,
      "raan_deg": 196.215,
      "arg_perigee_deg": 70.6723,
      "mean_anomaly_deg": 289.44,
      "mean_motion_rev_day": 15.30198833
    },
    {
      "epoch": "2026-03-31T13:35:01.001184Z",
      "apogee_km": 476.11576427839555,
      "perigee_km": 474.4270844426328,
      "latitude_deg": -1.5869184559478137e-05,
      "longitude_deg": 159.57538904055966,
      "height_km": 475.8635278964917,
      "semi_major_axis_km": 6853.408424360514,
      "eccentricity": 0.0001232,
      "inclination_deg": 53.1591,
      "raan_deg": 192.2711,
      "arg_perigee_deg": 68.7485,
      "mean_anomaly_deg": 291.3647,
      "mean_motion_rev_day": 15.30181126
    },
    {
      "epoch": "2026-04-01T13:05:47.541696Z",
      "apogee_km": 475.97728631251175,
      "perigee_km": 474.299604483479,
      "latitude_deg": -2.4525761522635373e-05,
      "longitude_deg": 161.3642234360981,
      "height_km": 475.8015765278156,
      "semi_major_axis_km": 6853.275445397995,
      "eccentricity": 0.0001224,
      "inclination_deg": 53.1594,
      "raan_deg": 187.7195,
      "arg_perigee_deg": 73.729,
      "mean_anomaly_deg": 286.3845,
      "mean_motion_rev_day": 15.30225663
    },
    {
      "epoch": "2026-04-02T09:28:28.041600Z",
      "apogee_km": 475.844183759672,
      "perigee_km": 474.20559275218966,
      "latitude_deg": -3.695753793209134e-05,
      "longitude_deg": -149.08442588854913,
      "height_km": 475.3823034799023,
      "semi_major_axis_km": 6853.1618882559305,
      "eccentricity": 0.00011955,
      "inclination_deg": 53.1601,
      "raan_deg": 183.7765,
      "arg_perigee_deg": 48.6557,
      "mean_anomaly_deg": 311.4546,
      "mean_motion_rev_day": 15.30263697
    },
    {
      "epoch": "2026-04-03T13:41:25.800000Z",
      "apogee_km": 476.52341697685915,
      "perigee_km": 474.32753555946147,
      "latitude_deg": -1.0421241734691535e-05,
      "longitude_deg": 141.05384251026086,
      "height_km": 476.64777632265486,
      "semi_major_axis_km": 6853.56247626816,
      "eccentricity": 0.0001602,
      "inclination_deg": 53.1592,
      "raan_deg": 178.3142,
      "arg_perigee_deg": 107.2019,
      "mean_anomaly_deg": 252.9157,
      "mean_motion_rev_day": 15.30129534
    }
  ]
}